[{"address":" Rua Treze de Maio, 76, 78 e 82 ","price1":" R$ 750.000,00 ","price2":"","classification":"Prédios | 87,45m2","link":"https://www.zukerman.com.br/predios-bela-vista-sao-paulo-sp-20376-148710","latitude":"-23.5537539","longitude":"-46.6469743","zipcode":"\"01327-000\""},{"address":" Rua Loureiro da Cruz, 312 ","price1":" R$ 1.068.076,69 ","price2":" R$ 534.038,35 ","classification":"Apartamento | 143,24m²","link":"https://www.zukerman.com.br/apartamento-aclimacao-sao-paulo-sp-20243-148437","latitude":"-23.5709798","longitude":"-46.6338699","zipcode":"\"01529-020\""},{"address":" Rua Conselheiro Crispiniano, 105/109 ","price1":" R$ 487.004,10 ","price2":" R$ 243.502,05 ","classification":"Conjunto Comercial | 145,65m²","link":"https://www.zukerman.com.br/conjunto-comercial-centro-sao-paulo-sp-20090-147733","latitude":"-23.5460461","longitude":"-46.6398838","zipcode":"\"01037-001\""},{"address":" Rua Gualacho, 01 ","price1":" R$ 8.082.256,68 ","price2":" R$ 4.849.354,01 ","classification":"Galpão | 696,30m2","link":"https://www.zukerman.com.br/galpao-aclimacao-sao-paulo-sp-20157-148016","latitude":"-23.5705369","longitude":"-46.63799119999999","zipcode":"\"01533-020\""},{"address":" Avenida Prestes Maia, 241 ","price1":" R$ 75.601,19 ","price2":" R$ 37.800,59 ","classification":"Sala Comercial | 30,98m²","link":"https://www.zukerman.com.br/sala-comercial-centro-sao-paulo-sp-20135-147926","latitude":"-23.5421391","longitude":"-46.6354864","zipcode":"\"01031-001\""},{"address":" Rua Rubens Meireles, 99 ","price1":" R$ 303.000,00 ","price2":"","classification":"Apartamento | 41,08m²","link":"https://www.zukerman.com.br/apartamento-barra-funda-sao-paulo-sp-20234-148382","latitude":"-23.5207127","longitude":"-46.6662687","zipcode":"\"01141-000\""},{"address":" Rua Maria Paula, 166 ","price1":" R$ 327.449,03 ","price2":" R$ 196.469,42 ","classification":"Apartamento | 77,20m²","link":"https://www.zukerman.com.br/apartamento-bela-vista-sao-paulo-sp-20017-147563","latitude":"-23.5517571","longitude":"-46.6392275","zipcode":"\"01319-001\""},{"address":" Avenida Paulista, 1337/1343 ","price1":" R$ 1.832.920,00 ","price2":"","classification":"Sala Comercial | 396,52m²","link":"https://www.zukerman.com.br/sala-comercial-bela-vista-sao-paulo-sp-20155-148010","latitude":"-23.5634382","longitude":"-46.6547934","zipcode":"\"01311-200\""},{"address":" Rua Antônio Flaquer, 423 ","price1":" R$ 351.455,02 ","price2":" R$ 210.873,01 ","classification":"Apartamento | 70,53m²","link":"https://www.zukerman.com.br/apartamento-barro-branco--sao-paulo-sp-20152-148002","latitude":"-23.4699122","longitude":"-46.6085955","zipcode":"\"02344-070\""},{"address":" Avenida Cangaíba, 2720 ","price1":" R$ 2.069.400,00 ","price2":"","classification":"Terreno | 977,73m2","link":"javascript:link_externo(20204,148201);","latitude":"-23.506109","longitude":"-46.52961940000001","zipcode":"\"03712-008\""},{"address":" Rua dos Tapes, 193 ","price1":" R$ 489.895,69 ","price2":" R$ 244.947,85 ","classification":"Apartamento | 69,70m²","link":"https://www.zukerman.com.br/apartamento-cambuci-sao-paulo-sp-20283-148537","latitude":"-23.5623613","longitude":"-46.6300283","zipcode":"\"01527-050\""},{"address":" Rua Vicente Prado, 93 ","price1":" R$ 1.186.636,23 ","price2":" R$ 593.318,11 ","classification":"Casa | 160,00m2","link":"https://www.zukerman.com.br/casa-bela-vista-sao-paulo-sp-20191-148180","latitude":"-23.5566715","longitude":"-46.6412598","zipcode":"\"01321-020\""},{"address":" Rua do Repicar dos Sinos, 319 ","price1":" R$ 938.756,62 ","price2":" R$ 277.563,99 ","classification":"Casa | 126,50m2","link":"https://www.zukerman.com.br/casa-campo-limpo-sao-paulo-sp-20318-148588","latitude":"-23.4853241","longitude":"-46.4616364","zipcode":"\"08072-195\""},{"address":" Rua Rubens Meireles, 99 ","price1":" R$ 314.000,00 ","price2":"","classification":"Apartamento | 45,40m²","link":"https://www.zukerman.com.br/apartamento-barra-funda-sao-paulo-sp-20234-148381","latitude":"-23.5207127","longitude":"-46.6662687","zipcode":"\"01141-000\""},{"address":" Rua Pascal, 181 ","price1":" R$ 3.990.000,00 ","price2":"","classification":"Apartamento | 542,67m²","link":"https://www.zukerman.com.br/apartamento-brooklin-novo-sao-paulo-sp-17886-139130","latitude":"-23.6157836","longitude":"-46.6778546","zipcode":"\"04616-001\""},{"address":" Alameda Ribeirão Preto, 285 ","price1":" R$ 996.675,65 ","price2":" R$ 598.005,39 ","classification":"Apartamento | 135,26m²","link":"https://www.zukerman.com.br/apartamento-bela-vista-sao-paulo-sp-20353-148675","latitude":"-23.5638258","longitude":"-46.64983729999999","zipcode":"\"01331-001\""},{"address":" Rua Barra Funda, 297 ","price1":" R$ 281.228,64 ","price2":" R$ 141.120,53<span class=\"sqla\"> | 1 lance</span> ","classification":"Apartamento | 54,28m²","link":"https://www.zukerman.com.br/apartamento-barra-funda-sao-paulo-sp-20008-147554","latitude":"-23.5312905","longitude":"-46.6545073","zipcode":"\"01152-000\""},{"address":" Rua Jaraguá, 859 ","price1":" R$ 5.516.618,60 ","price2":" R$ 3.309.971,16 ","classification":"Prédio Comercial | 1.035,00m2","link":"https://www.zukerman.com.br/predio-comercial-bom-retiro-sao-paulo-sp-20197-148187","latitude":"-23.5250433","longitude":"-46.648395","zipcode":"\"01129-000\""},{"address":" Rua do Hipódromo, 720 ","price1":" R$ 62.215,35 ","price2":" R$ 37.329,21 ","classification":"Apartamento | 43,81m²","link":"https://www.zukerman.com.br/apartamento-bras-sao-paulo-sp-20326-148596","latitude":"-23.5462851","longitude":"-46.6093857","zipcode":"\"03051-000\""},{"address":" Rua Vinte e Cinco de Março, 461 ","price1":" R$ 5.603.480,00 ","price2":"","classification":"Ex-Agência | 396,51m²","link":"https://www.zukerman.com.br/ex_agencia-centro-sao-paulo-sp-20155-148008","latitude":"-23.5458184","longitude":"-46.6323741","zipcode":"\"01021-000\""},{"address":" Rua Doutor José Benedito Viana de Moraes, 265 ","price1":" R$ 665.404,83 ","price2":" R$ 332.702,41 ","classification":"Apartamento | 95,00m²","link":"https://www.zukerman.com.br/apartamento-cidade-sao-francisco-sao-paulo-sp-20140-148185","latitude":"-23.5617301","longitude":"-46.7552548","zipcode":"\"05351-005\""},{"address":" Rua Engenheiro Guimarães Valadão, 15 ","price1":" R$ 3.728.160,00 ","price2":" R$ 5.134.924,25 ","classification":"Casa | 559,84m2","link":"https://www.zukerman.com.br/casa-cidade-jardim-sao-paulo-sp-20272-148516","latitude":"-23.5872596","longitude":"-46.6935106","zipcode":"\"05671-010\""},{"address":" Rua Nossa Senhora do Bom Conselho, 308 ","price1":" R$ 251.853,30 ","price2":" R$ 151.655,98<span class=\"sqla\"> | 1 lance</span> ","classification":"Apartamento | 55,98m²","link":"https://www.zukerman.com.br/apartamento-chacara-nossa-senhora-do-bom-conselho-sao-paulo-sp-19988-147335","latitude":"-23.6413478","longitude":"-46.7589484","zipcode":"\"05763-470\""},{"address":" Rua João Avelino Pinho Mellão, 120 ","price1":" R$ 542.369,53 ","price2":" R$ 272.161,03<span class=\"sqla\"> | 1 lance</span> ","classification":"Apartamento | 159,98m²","link":"https://www.zukerman.com.br/apartamento-fazenda-morumbi-sao-paulo-sp-19958-147273","latitude":"-23.6079969","longitude":"-46.7227703","zipcode":"\"05659-010\""},{"address":" Rua Salatiel de Campos, 121 ","price1":" R$ 359.834,43 ","price2":" R$ 179.917,22 ","classification":"Apartamento | 56,34m²","link":"https://www.zukerman.com.br/apartamento-jaguare-sao-paulo-sp-20146-147974","latitude":"-23.5429161","longitude":"-46.7439983","zipcode":"\"05333-010\""},{"address":" Rua Barão de Bocaina, 63 ","price1":" R$ 1.653.974,29 ","price2":" R$ 992.384,57 ","classification":"Apartamento | 190,00m²","link":"https://www.zukerman.com.br/apartamento-higienopolis-sao-paulo-sp-20302-148561","latitude":"-23.5433413","longitude":"-46.6627461","zipcode":"\"01241-020\""},{"address":" Avenida Prestes Maia, 241 ","price1":" R$ 69.007,14 ","price2":" R$ 34.503,57 ","classification":"Sala Comercial | 50,00m²","link":"https://www.zukerman.com.br/sala-comercial-centro-sao-paulo-sp-20169-148107","latitude":"-23.5421391","longitude":"-46.6354864","zipcode":"\"01031-001\""},{"address":" Rua Verbo Divino, 1488 ","price1":" R$ 573.600,00 ","price2":"","classification":"Ex-Agência","link":"javascript:link_externo(19648,148643);","latitude":"-23.6308349","longitude":"-46.70909210000001","zipcode":"\"04719-002\""},{"address":" Rua Rio Mambituba, 21 ","price1":" R$ 441.232,18 ","price2":" R$ 220.616,09 ","classification":"Casa | 301,00m2","link":"https://www.zukerman.com.br/casa-itaim-paulista-sao-paulo-sp-20258-148499","latitude":"-23.5058104","longitude":"-46.3974798","zipcode":"\"08140-184\""},{"address":" Avenida Prestes Maia , 241 ","price1":" R$ 65.534,58 ","price2":" R$ 39.320,75 ","classification":"Sala Comercial | 50,00m²","link":"https://www.zukerman.com.br/sala-comercial-centro-sao-paulo-sp-20359-148686","latitude":"-23.5421391","longitude":"-46.6354864","zipcode":"\"01031-001\""},{"address":" Rua Serra de São Domingos, 158 ","price1":" R$ 16.934,52 ","price2":" R$ 12.700,89 ","classification":"Vaga de Garagem | 79,00m²","link":"https://www.zukerman.com.br/vaga-de-garagem-itaquera-sao-paulo-sp-20339-148654","latitude":"-23.5479843","longitude":"-46.4485286","zipcode":"\"08290-370\""},{"address":" Avenida Prestes Maia, 241 ","price1":" R$ 61.795,15 ","price2":" R$ 30.897,58 ","classification":"Sala Comercial | 50,00m²","link":"https://www.zukerman.com.br/sala-comercial-centro-sao-paulo-sp-20170-148108","latitude":"-23.5421391","longitude":"-46.6354864","zipcode":"\"01031-001\""},{"address":" Rua Maestro Tom Jobim, 85 ","price1":" R$ 4.768.772,91 ","price2":" R$ 2.311.549,07 ","classification":"Apartamento | 394,27m²","link":"https://www.zukerman.com.br/apartamento-jardim-analia-franco-sao-paulo-sp-20313-148582","latitude":"-23.5566945","longitude":"-46.56501720000001","zipcode":"\"03337-040\""},{"address":" Avenida Angélica, 1173 ","price1":" R$ 2.895.629,60 ","price2":" R$ 1.737.377,76 ","classification":"Apartamento | 458,00m²","link":"https://www.zukerman.com.br/apartamento-higienopolis-sao-paulo-sp-20238-148391","latitude":"-23.5432161","longitude":"-46.6559436","zipcode":"\"01227-100\""},{"address":" Rua da Cantareira, 709 ","price1":" R$ 4.058.657,89 ","price2":" R$ 2.029.328,95 ","classification":"Prédio Comercial | 380,64m2","link":"https://www.zukerman.com.br/predio-comercial-flor-da-cantareira-sao-paulo-sp-20331-148602","latitude":"-23.538049","longitude":"-46.6286245","zipcode":"\"01024-100\""},{"address":" Rua do Ângulo, 412 ","price1":" R$ 916.900,55 ","price2":" R$ 550.140,33 ","classification":"Apartamento | 124,38m²","link":"https://www.zukerman.com.br/apartamento-jardim-ampliacao-sao-paulo-sp-20323-148593","latitude":"-23.62807","longitude":"-46.7302003","zipcode":"\"05713-410\""},{"address":" Rua Nestor Pestana, 87 ","price1":" R$ 967.822,10 ","price2":" R$ 483.911,05 ","classification":"Apartamento | 168,75m²","link":"https://www.zukerman.com.br/apartamento-consolacao-sao-paulo-sp-20180-148118","latitude":"-23.5483661","longitude":"-46.645164","zipcode":"\"01303-010\""},{"address":" Rua Estados Unidos, 1950 ","price1":" R$ 12.434.105,00 ","price2":"","classification":"Prédio Comercial | 907,70m2","link":"javascript:link_externo(20205,148216);","latitude":"-23.5642432","longitude":"-46.6720449","zipcode":"\"01427-002\""},{"address":" Rua José Coelho Noronha, 44 ","price1":" R$ 399.000,00 ","price2":"","classification":"Casa | 130,00m2","link":"https://www.zukerman.com.br/casa-imirim-sao-paulo-sp-20358-148685","latitude":"-23.488653","longitude":"-46.6557733","zipcode":"\"02540-080\""},{"address":" Rua José Galdino de Lucena, 143 ","price1":" R$ 231.770,00 ","price2":"","classification":"Apartamento","link":"https://www.zukerman.com.br/apartamento-chacara-sao-joao-sao-paulo-sp-20231-148681","latitude":"-23.50074","longitude":"-46.75630659999999","zipcode":"\"05110-080\""},{"address":" Rua Huitacá, 51 ","price1":" R$ 404.471,24 ","price2":" R$ 242.682,75 ","classification":"Apartamento | 83,80m²","link":"https://www.zukerman.com.br/apartamento-jardim-da-campina-sao-paulo-sp-20150-147999","latitude":"-23.6658673","longitude":"-46.6810482","zipcode":"\"04677-020\""},{"address":" Rua Luiz Galhanone, 47 ","price1":" R$ 1.466.535,07 ","price2":" R$ 1.099.901,30 ","classification":"Casa | 383,00m2","link":"https://www.zukerman.com.br/casa-jardim-viana-sao-paulo-sp-20219-148249","latitude":"-23.6052609","longitude":"-46.71363179999999","zipcode":"\"05654-010\""},{"address":" Avenida Washington Luiz, s/n ","price1":" R$ 8.269.407,00 ","price2":" R$ 4.961.644,20 ","classification":"Terreno | 3.179,49m2","link":"https://www.zukerman.com.br/terreno-jardim-marajoara-sao-paulo-sp-20269-148513","latitude":"-23.6402443","longitude":"-46.6738198"},{"address":" Avenida Baltazar Santana, 212 ","price1":" R$ 190.521,51 ","price2":" R$ 114.312,91 ","classification":"Apartamento | 47,17m²","link":"https://www.zukerman.com.br/apartamento-jardim-planalto-sao-paulo-sp-20119-147887","latitude":"-23.5091518","longitude":"-46.4487198","zipcode":"\"08040-420\""},{"address":" Rua Bactória, 164 ","price1":" R$ 265.640,47 ","price2":" R$ 159.384,28 ","classification":"Apartamento | 48,22m²","link":"https://www.zukerman.com.br/apartamento-jardim-vila-formosa-sao-paulo-sp-20288-148546","latitude":"-23.5747761","longitude":"-46.5230799","zipcode":"\"03472-100\""},{"address":" Rua Elvira Cirnes Brochado, 73 ","price1":" R$ 296.325,74 ","price2":" R$ 148.162,87 ","classification":"Casas | 250,00m2","link":"https://www.zukerman.com.br/casas-jardim-sao-jorge-sao-paulo-sp-20324-148594","latitude":"-23.5965918","longitude":"-46.7833104","zipcode":"\"05567-190\""},{"address":" Rua Ezequiel Marques, 45 ","price1":" R$ 266.702,01 ","price2":" R$ 133.351,01 ","classification":"Casa | 100,00m2","link":"https://www.zukerman.com.br/casa-jardim-recanto-verde-sao-paulo-sp-20104-147852","latitude":"-23.4327957","longitude":"-46.5809765","zipcode":"\"02364-020\""},{"address":" Rua Salgueiral, 131 ","price1":" R$ 406.200,00 ","price2":"","classification":"Casa | 165,10m²","link":"https://www.zukerman.com.br/casa-jardim-cidalia-sao-paulo-sp-20141-148452","latitude":"-23.6615947","longitude":"-46.6668367","zipcode":"\"04652-055\""},{"address":" Avenida Feliciano Correia, 389 ","price1":" R$ 584.402,82 ","price2":" R$ 292.201,41 ","classification":"Casa | 137,30m2","link":"https://www.zukerman.com.br/casa-jardim-satelite-sao-paulo-sp-20254-148491","latitude":"-23.7028522","longitude":"-46.6901774","zipcode":"\"04815-240\""},{"address":" Avenida Major Sylvio de Magalhães Padilha, 5200 ","price1":" R$ 82.929,00<span class=\"sqla\"> | 3 lances</span> ","price2":"","classification":"Sala","link":"https://www.zukerman.com.br/sala-jardim-morumbi-sao-paulo-sp-20231-148524","latitude":"-23.6192142","longitude":"-46.7028349","zipcode":"\"05692-050\""},{"address":" Rua Nossa Senhora da Saúde, 1.330 ","price1":" R$ 508.270,74 ","price2":" R$ 393.340,74 ","classification":"Apartamento | 50,70m²","link":"https://www.zukerman.com.br/apartamento-jardim-previdencia-sao-paulo-sp-20255-148492","latitude":"-23.622358","longitude":"-46.607015","zipcode":"\"04159-001\""},{"address":" Rua Guadelupe, 371 ","price1":" R$ 9.347.545,37 ","price2":" R$ 7.805.200,38 ","classification":"Casa | 1.152,00m2","link":"https://www.zukerman.com.br/casa-jardim-paulista-sao-paulo-sp-20352-148674","latitude":"-23.5661907","longitude":"-46.6741933","zipcode":"\"01439-010\""},{"address":" Rua Puréus, 131 ","price1":" R$ 2.990.000,00 ","price2":"","classification":"Casa | 636,00m2","link":"https://www.zukerman.com.br/casa-jardim-guedala-sao-paulo-sp-20158-148018","latitude":"-23.582833","longitude":"-46.71145200000001","zipcode":"\"05610-000\""},{"address":" Rua Guajurus, 187 ","price1":" R$ 2.646.132,26 ","price2":" R$ 1.984.599,19 ","classification":"Casa | 452,00m2","link":"https://www.zukerman.com.br/casa-jardim-sao-paulo-sao-paulo-sp-20223-148253","latitude":"-23.4952369","longitude":"-46.6166675","zipcode":"\"02045-070\""},{"address":" Avenida dos Ourives, 480 ","price1":" R$ 199.675,67 ","price2":" R$ 99.837,84 ","classification":"Apartamento | 54,25m²","link":"https://www.zukerman.com.br/apartamento-jardim-sao-saverio-sao-paulo-sp-20237-148390","latitude":"-23.6545883","longitude":"-46.6100425","zipcode":"\"04194-260\""},{"address":" Rua Dríades, 180 ","price1":" R$ 234.265,17 ","price2":" R$ 187.412,14 ","classification":"Apartamento | 49,00m²","link":"https://www.zukerman.com.br/apartamento-jardim-casa-pintada-sao-paulo-sp-20336-148647","latitude":"-23.509735","longitude":"-46.44729479999999","zipcode":"\"08040-460\""},{"address":" Rua Ângelo Bertini, 303 ","price1":" R$ 232.550,57 ","price2":" R$ 139.530,34 ","classification":"Apartamento | 57,96m²","link":"https://www.zukerman.com.br/apartamento-jardim-celeste-sao-paulo-sp-20289-148547","latitude":"-23.6552116","longitude":"-46.6104177","zipcode":"\"04195-090\""},{"address":" Avenida Oswaldo Aranha, 70 ","price1":" R$ 3.117.809,90 ","price2":" R$ 1.870.685,94 ","classification":"Prédio Comercial | 451,86m2","link":"https://www.zukerman.com.br/predio-comercial-jardim-da-saude-sao-paulo-sp-20320-148590","latitude":"-23.6136698","longitude":"-46.609816","zipcode":"\"04291-070\""},{"address":" Avenida Carneiro Ribeiro, 6- A ou 92 ","price1":" R$ 350.482,91 ","price2":" R$ 210.289,75 ","classification":"Casa | 125,00m2","link":"https://www.zukerman.com.br/casa-jardim-vila-formosa-sao-paulo-sp-20251-148469","latitude":"-23.5671425","longitude":"-46.5263715","zipcode":"\"03461-030\""},{"address":" Rua Manuel Figueiredo Landim, 600 ","price1":" R$ 1.408.450,10 ","price2":" R$ 845.070,06 ","classification":"Apartamento | 163,49m²","link":"https://www.zukerman.com.br/apartamento-jardim-campo-grande-sao-paulo-sp-20199-148189","latitude":"-23.679233","longitude":"-46.691965","zipcode":"\"04693-130\""},{"address":" Rua Dos Holandeses , 31 ","price1":" R$ 2.466.624,04 ","price2":" R$ 1.233.312,02 ","classification":"Apartamento | 239,12m²","link":"https://www.zukerman.com.br/apartamento-morro-dos-ingleses-sao-paulo-sp-20206-148221","latitude":"-23.5609728","longitude":"-46.6471622","zipcode":"\"01329-020\""},{"address":" Rua Doutor Chibata Miyakoshi, 300 ","price1":" R$ 856.968,62 ","price2":"","classification":"Apartamento | 285,04m²","link":"https://www.zukerman.com.br/apartamento-paraiso-do-morumbi-sao-paulo-sp-20341-148656","latitude":"-23.6261676","longitude":"-46.7224136","zipcode":"\"05705-170\""},{"address":" Avenida Ibijaú, 199 ","price1":" R$ 824.755,77 ","price2":" R$ 412.377,89 ","classification":"Apartamento | 135,00m²","link":"https://www.zukerman.com.br/apartamento-moema-sao-paulo-sp-20292-148550","latitude":"-23.6049926","longitude":"-46.6664846","zipcode":"\"04524-020\""},{"address":" Avenida José Galante, 224 ","price1":" R$ 2.803.031,25 ","price2":" R$ 849.683,51 ","classification":"Apartamento | 424,83m²","link":"https://www.zukerman.com.br/apartamento-morumbi-sao-paulo-sp-20317-148587","latitude":"-23.618842","longitude":"-46.7339956","zipcode":"\"05642-000\""},{"address":" Rua Cerro de Mateus Simões, 325 ","price1":" R$ 389.550,00 ","price2":"","classification":"Casa","link":"https://www.zukerman.com.br/casa-parque-boturussu-sao-paulo-sp-20231-148263","latitude":"-23.5041388","longitude":"-46.4795646","zipcode":"\"03805-010\""},{"address":" Rua Afonso de Freitas, 576 ","price1":" R$ 918.405,99 ","price2":" R$ 551.043,59 ","classification":"Apartamento | 95,60m²","link":"https://www.zukerman.com.br/apartamento-paraiso-sao-paulo-sp-20290-148548","latitude":"-23.5761579","longitude":"-46.6475429","zipcode":"\"04006-052\""},{"address":" Rua Conde Prates, 819 e 823 ","price1":" R$ 993.137,40 ","price2":" R$ 595.882,44 ","classification":"Sobrado | 288,08m2","link":"https://www.zukerman.com.br/sobrado-parque-da-mooca-sao-paulo-sp-20310-148571","latitude":"-23.5684426","longitude":"-46.5911586","zipcode":"\"03122-000\""},{"address":" Rua Oagy Kalile, 376 ","price1":" R$ 1.247.424,87 ","price2":" R$ 623.712,44 ","classification":"Apartamento | 246,98m²","link":"https://www.zukerman.com.br/apartamento-jardim-vitoria-regia-sao-paulo-sp-20246-148440","latitude":"-23.6248157","longitude":"-46.71819110000001","zipcode":"\"05657-100\""},{"address":" Av. Pacaembu, 1306 ","price1":" R$ 5.581.775,00 ","price2":"","classification":"Ex-Agência | 1.242,55m2","link":"javascript:link_externo(20205,148217);","latitude":"-23.5375128","longitude":"-46.6640085","zipcode":"\"01235\""},{"address":" Rua Herison, s/n ","price1":" R$ 963.735,00 ","price2":" R$ 677.043,11 ","classification":"Terreno | 180,00m2","link":"https://www.zukerman.com.br/terreno-lauzane-paulista-sao-paulo-sp-20112-147879","latitude":"-23.4726635","longitude":"-46.6440652","zipcode":"\"02442-040\""},{"address":" Rua Atibaia, 252 ","price1":" R$ 1.600.000,00 ","price2":"","classification":"Casa | 560,00m2","link":"https://www.zukerman.com.br/casa-pacaembu-sao-paulo-sp-20037-147621","latitude":"-23.5399658","longitude":"-46.6683187","zipcode":"\"01235-010\""},{"address":" Rua Pedro Álvares Cabral, 21 ","price1":" R$ 307.826,63 ","price2":"","classification":"Apartamento | 76,07m²","link":"https://www.zukerman.com.br/apartamento-luz-sao-paulo-sp-20038-147622","latitude":"-23.5353333","longitude":"-46.626364","zipcode":"\"01105-050\""},{"address":" Rua Carlos Queiroz Telles, 162 ","price1":" R$ 3.682.323,19 ","price2":" R$ 1.841.161,59 ","classification":"Apartamento | 385,10m²","link":"https://www.zukerman.com.br/apartamento-morumbi-sao-paulo-sp-20270-148514","latitude":"-23.6293816","longitude":"-46.7234492","zipcode":"\"05704-150\""},{"address":" Rua Deputado Laércio Corte, 1455 ","price1":" R$ 5.563.334,07 ","price2":" R$ 7.205.618,24 ","classification":"Apartamento | 713,68m²","link":"https://www.zukerman.com.br/apartamento-paraiso-do-morumbi-sao-paulo-sp-20233-148380","latitude":"-23.632496","longitude":"-46.7244307","zipcode":"\"05706-290\""},{"address":" Rua Leonardo Cerveira Varandas, 50 ","price1":" R$ 811.443,07 ","price2":" R$ 486.865,84 ","classification":"Apartamento | 125,95m²","link":"https://www.zukerman.com.br/apartamento-paraiso-do-morumbi-sao-paulo-sp-20164-148102","latitude":"-23.6250914","longitude":"-46.7199371","zipcode":"\"05705-270\""},{"address":" Rua Conselheiro Furtado, 868 ","price1":" R$ 188.125,71 ","price2":" R$ 94.062,86 ","classification":"Apartamento | 55,42m²","link":"https://www.zukerman.com.br/apartamento-liberdade-sao-paulo-sp-20171-148109","latitude":"-23.560904","longitude":"-46.63301430000001","zipcode":"\"01511-001\""},{"address":" Rua Soldado Sebastião Garcia, 81 ","price1":" R$ 292.802,05 ","price2":" R$ 175.681,23 ","classification":"Apartamento | 55,14m²","link":"https://www.zukerman.com.br/apartamento-parque-novo-mundo-sao-paulo-sp-20240-148393","latitude":"-23.5199662","longitude":"-46.5685238","zipcode":"\"02179-050\""},{"address":" Avenida Paes de Barros, 409-411 ","price1":" R$ 256.749,00 ","price2":" R$ 128.374,50 ","classification":"Sala Comercial | 36,13m²","link":"https://www.zukerman.com.br/sala-comercial-mooca-sao-paulo-sp-20355-148677","latitude":"-23.5591496","longitude":"-46.5998521","zipcode":"\"03115-020\""},{"address":" Rua Plínio Colas, 278 ","price1":" R$ 381.080,16 ","price2":" R$ 225.554,00 ","classification":"Apartamento | 62,54m²","link":"https://www.zukerman.com.br/apartamento-lauzane-paulista-sao-paulo-sp-20348-148670","latitude":"-23.479565","longitude":"-46.6416453","zipcode":"\"02435-030\""},{"address":" Rua Alves Guimarães, 1.255 ","price1":" R$ 437.103,99 ","price2":" R$ 349.683,19 ","classification":"Apartamento | 57,71m²","link":"https://www.zukerman.com.br/apartamento-pinheiros-sao-paulo-sp-20163-148101","latitude":"-23.5556837","longitude":"-46.6782927"},{"address":" Rua Vinte e Quatro de Maio, 116 ","price1":" R$ 175.483,00 ","price2":" R$ 87.741,50 ","classification":"Sala Comercial | 17,12m²","link":"https://www.zukerman.com.br/sala-comercial-republica-sao-paulo-sp-20211-148226","latitude":"-23.5439179","longitude":"-46.63957920000001","zipcode":"\"01041-001\""},{"address":" Rua Teodoro Sampaio, 399 e 407 ","price1":" R$ 509.047,99 ","price2":" R$ 305.428,79 ","classification":"Conj. Comercial | 126,39m²","link":"https://www.zukerman.com.br/conj.-comercial-pinheiros-sao-paulo-sp-20351-148673","latitude":"-23.5559358","longitude":"-46.6745386","zipcode":"\"05405-000\""},{"address":" Avenida Prestes Maia, 241 ","price1":" R$ 86.531,43 ","price2":" R$ 51.918,86 ","classification":"Sala Comercial | 50,00m²","link":"https://www.zukerman.com.br/sala-comercial-republica-sao-paulo-sp-20230-148262","latitude":"-23.5421391","longitude":"-46.6354864","zipcode":"\"01031-001\""},{"address":" Rua Santa Eudoxia, 1095 ","price1":" R$ 403.882,50 ","price2":"","classification":"Casa","link":"javascript:link_externo(19648,148635);","latitude":"-23.4953936","longitude":"-46.6585163","zipcode":"\"02533-011\""},{"address":" Rua Ministro Godói, 195 ","price1":" R$ 97.195,19 ","price2":" R$ 77.756,16 ","classification":"Vaga de Garagem | 50,24m²","link":"https://www.zukerman.com.br/vaga-de-garagem-perdizes-sao-paulo-sp-20115-147882","latitude":"-23.5315701","longitude":"-46.6681672","zipcode":"\"05015-000\""},{"address":" Rua Bartira, 59 ","price1":" R$ 88.775,08 ","price2":" R$ 71.020,06 ","classification":"Vaga de Garagem | 24,89m²","link":"https://www.zukerman.com.br/vaga-de-garagem-perdizes-sao-paulo-sp-20115-147883","latitude":"-23.5404143","longitude":"-46.6692946","zipcode":"\"05009-000\""},{"address":" Rua Doutor Thomas Carvalhal, 981 ","price1":" R$ 444.327,96 ","price2":"","classification":"Apartamento | 123,56m²","link":"https://www.zukerman.com.br/apartamento-paraiso-sao-paulo-sp-20015-147561","latitude":"-23.5795136","longitude":"-46.64991999999999","zipcode":"\"04006-003\""},{"address":" Rua Cardoso de Almeida, 898 ","price1":" R$ 2.415.895,66 ","price2":" R$ 1.454.755,72 ","classification":"Apartamentos | 332,93m²","link":"https://www.zukerman.com.br/apartamentos-perdizes-sao-paulo-sp-19947-147257","latitude":"-23.5384456","longitude":"-46.66883439999999","zipcode":"\"05013-001\""},{"address":" Rua Marconi, 87 ","price1":" R$ 357.901,84 ","price2":" R$ 178.950,92 ","classification":"Conj. Comercial | 140,46m²","link":"https://www.zukerman.com.br/conj.-comercial-republica-sao-paulo-sp-20065-147674","latitude":"-23.5455409","longitude":"-46.64047799999999","zipcode":"\"01047-000\""},{"address":" Rua dos Timbiras, 395 ","price1":" R$ 205.000,00<span class=\"sqla\"> | 24 lances</span> ","price2":"","classification":"Apartamento | 36,00m²","link":"https://www.zukerman.com.br/apartamento-santa-efigenia-sao-paulo-sp-20234-148383","latitude":"-23.541083","longitude":"-46.6395418","zipcode":"\"01208-012\""},{"address":" Rua dos Timbiras, 395 ","price1":" R$ 220.000,00 ","price2":"","classification":"Apartamento | 35,80m²","link":"https://www.zukerman.com.br/apartamento-santa-efigenia-sao-paulo-sp-20234-148385","latitude":"-23.541083","longitude":"-46.6395418","zipcode":"\"01208-012\""},{"address":" Rua dos Timbiras, 395 ","price1":" R$ 220.000,00<span class=\"sqla\"> | 1 lance</span> ","price2":"","classification":"Apartamento | 35,80m²","link":"https://www.zukerman.com.br/apartamento-santa-efigenia-sao-paulo-sp-20234-148384","latitude":"-23.541083","longitude":"-46.6395418","zipcode":"\"01208-012\""},{"address":" Rua Marquês de Sabará, 210 ","price1":" R$ 1.005.635,14 ","price2":" R$ 603.381,09 ","classification":"Apartamento | 169,92m²","link":"https://www.zukerman.com.br/apartamento-real-parque-sao-paulo-sp-20013-147559","latitude":"-23.6059294","longitude":"-46.7053073","zipcode":"\"05684-020\""},{"address":" Praça da República, 386 ","price1":" R$ 260.000,00 ","price2":"","classification":"Conj. Comerciais | 230,42m²","link":"https://www.zukerman.com.br/conj.-comerciais-republica-sao-paulo-sp-20295-148554","latitude":"-23.5426594","longitude":"-46.6413959","zipcode":"\"01045-001\""},{"address":" Rua Cardoso de Almeida, 414 ","price1":" R$ 810.854,00 ","price2":" R$ 608.140,50 ","classification":"Apartamento | 140,00m²","link":"https://www.zukerman.com.br/apartamento-perdizes-sao-paulo-sp-20356-148678","latitude":"-23.534886","longitude":"-46.6662158","zipcode":"\"05013-000\""},{"address":" Rua Caraíbas, 1.199 ","price1":" R$ 317.466,52 ","price2":" R$ 190.479,91 ","classification":"Apartamento | 60,00m²","link":"https://www.zukerman.com.br/apartamento-perdizes-sao-paulo-sp-20178-148116","latitude":"-23.5339565","longitude":"-46.68351759999999","zipcode":"\"05020-000\""},{"address":" Rua Marquês de Maricá, 597 ","price1":" R$ 671.149,26 ","price2":" R$ 335.574,63 ","classification":"Sobrado | 140,00m2","link":"https://www.zukerman.com.br/sobrado-sacoma-sao-paulo-sp-20375-148707","latitude":"-23.6125666","longitude":"-46.59828479999999","zipcode":"\"04252-000\""},{"address":" Rua Monte Alegre, 523 ","price1":" R$ 389.820,28 ","price2":" R$ 194.910,14 ","classification":"Sala Comercial | 118,90m²","link":"https://www.zukerman.com.br/sala-comercial-perdizes-sao-paulo-sp-20364-148692","latitude":"-23.5352058","longitude":"-46.6679501","zipcode":"\"05014-000\""},{"address":" Rua Antonio Cavazzam, 403 ","price1":" R$ 592.526,84 ","price2":" R$ 385.142,45 ","classification":"Casa | 336,00m2","link":"https://www.zukerman.com.br/casa-parque-peruche-sao-paulo-sp-20278-148532","latitude":"-23.4982308","longitude":"-46.6526642","zipcode":"\"02534-000\""},{"address":" Rua Engenheiro Edgar Egídio de Sousa, 150 ","price1":" R$ 3.500.000,00 ","price2":"","classification":"Apartamento | 303,60m²","link":"https://www.zukerman.com.br/apartamento-santa-cecilia-sao-paulo-sp-19857-147027","latitude":"-23.5408659","longitude":"-46.6627229","zipcode":"\"01233-020\""},{"address":" Rua dos Timbiras, 395 ","price1":" R$ 220.000,00 ","price2":"","classification":"Apartamento | 35,80m²","link":"https://www.zukerman.com.br/apartamento-santa-efigenia-sao-paulo-sp-20234-148387","latitude":"-23.541083","longitude":"-46.6395418","zipcode":"\"01208-012\""},{"address":" Avenida Giovanni Gronchi, 4822 ","price1":" R$ 917.070,00 ","price2":"","classification":"Apartamento","link":"javascript:link_externo(19648,148632);","latitude":"-23.6216479","longitude":"-46.7336519","zipcode":"\"05724-002\""},{"address":" Rua Itamatai, 17 ","price1":" R$ 712.380,91 ","price2":" R$ 427.428,55 ","classification":"Apartamento | 143,24m²","link":"https://www.zukerman.com.br/apartamento-vila-andrade-sao-paulo-sp-20047-147644","latitude":"-23.6297637","longitude":"-46.7315628","zipcode":"\"05715-020\""},{"address":" Rua Frei Mont'Alverne, 313 / 313 A ","price1":" R$ 1.535.629,42 ","price2":" R$ 767.814,71 ","classification":"Casa e Salão Comercial | 400,00m2","link":"https://www.zukerman.com.br/casa-e-salao-comercial-vila-aricanduva-sao-paulo-sp-20325-148595","latitude":"-23.535508","longitude":"-46.537705","zipcode":"\"03505-030\""},{"address":" Rua Brás de Faria, 144 ","price1":" R$ 60.949,19 ","price2":" R$ 30.474,59 ","classification":"Apartamento | 63,00m²","link":"https://www.zukerman.com.br/apartamento-saude-sao-paulo-sp-20224-148254","latitude":"-23.6245938","longitude":"-46.6128696","zipcode":"\"04159-050\""},{"address":" Rua José da Silva Ribeiro, 120 ","price1":" R$ 999.532,17 ","price2":" R$ 499.766,08 ","classification":"Apartamento | 128,60m²","link":"https://www.zukerman.com.br/apartamento-vila-andrade-sao-paulo-sp-19990-147567","latitude":"-23.6231113","longitude":"-46.7397648","zipcode":"\"05726-130\""},{"address":" Rua Tefé, 315 ","price1":" R$ 2.070.374,39 ","price2":" R$ 1.454.479,40 ","classification":"Sobrado | 320,00m2","link":"https://www.zukerman.com.br/sobrado-sumare-sao-paulo-sp-20048-147645","latitude":"-23.550081","longitude":"-46.676371","zipcode":"\"01251-050\""},{"address":" Rua Ulisses Cruz, 668 ","price1":" R$ 1.125.200,00 ","price2":"","classification":"Apartamento | 162,17m²","link":"https://www.zukerman.com.br/apartamento-tatuape-sao-paulo-sp-20141-148497","latitude":"-23.5332371","longitude":"-46.580191","zipcode":"\"03077-000\""},{"address":" Rua General Osório, 188 ","price1":" R$ 79.872,15 ","price2":" R$ 39.936,07 ","classification":"Apartamento | 44,23m²","link":"https://www.zukerman.com.br/apartamento-santa-efigenia-sao-paulo-sp-20335-148646","latitude":"-23.5364216","longitude":"-46.6403038","zipcode":"\"01213-000\""},{"address":" Avenida Santo Amaro, 6805 ","price1":" R$ 9.978.720,00 ","price2":"","classification":"Imóvel Comercial | 1.050,00m2","link":"https://www.zukerman.com.br/imovel-comercial-santo-amaro-sao-paulo-sp-20155-148007","latitude":"-23.6403649","longitude":"-46.6981583","zipcode":"\"04701-200\""},{"address":" Rua dos Timbiras, 395 ","price1":" R$ 250.000,00 ","price2":"","classification":"Apartamento | 41,40m²","link":"https://www.zukerman.com.br/apartamento-santa-efigenia-sao-paulo-sp-20234-148386","latitude":"-23.541083","longitude":"-46.6395418","zipcode":"\"01208-012\""},{"address":" Rua Francisco Pessoa, 181 ","price1":" R$ 495.077,93 ","price2":" R$ 298.116,12 ","classification":"Apartamento | 130,20m²","link":"https://www.zukerman.com.br/apartamento-vila-andrade-sao-paulo-sp-19979-147307","latitude":"-23.6277554","longitude":"-46.7378837","zipcode":"\"05727-230\""},{"address":" Avenida Giovanni Gronchi, 4297 ","price1":" R$ 504.007,92 ","price2":" R$ 302.404,75 ","classification":"Apartamento Duplex | 85,32m²","link":"https://www.zukerman.com.br/apartamento-duplex-vila-andrade-sao-paulo-sp-20176-148114","latitude":"-23.6175203","longitude":"-46.73151180000001","zipcode":"\"05724-003\""},{"address":" Rua Nassioseno Gomes Barbosa, 165 ","price1":" R$ 235.935,00 ","price2":"","classification":"Casa","link":"https://www.zukerman.com.br/casa-vila-bela-do-sapopemba-sao-paulo-sp-20231-148295","latitude":"-23.6003261","longitude":"-46.5173649","zipcode":"\"03271-030\""},{"address":" Rua Visconde de Guaratiba , 288 ","price1":" R$ 1.239.984,96 ","price2":" R$ 743.990,98 ","classification":"Casas | 231,00m2","link":"https://www.zukerman.com.br/casas-saude-sao-paulo-sp-20168-148106","latitude":"-23.60035","longitude":"-46.619575","zipcode":"\"04125-040\""},{"address":" Rua Francisco Isoldi, 315 ","price1":" R$ 2.479.689,34 ","price2":" R$ 1.239.844,67 ","classification":"Apartamento | 278,03m²","link":"https://www.zukerman.com.br/apartamento-sumarezinho-sao-paulo-sp-20200-148190","latitude":"-23.5477571","longitude":"-46.6938897","zipcode":"\"05441-040\""},{"address":" Rua Conde de Sarzedas, 377 ","price1":" R$ 186.363,96 ","price2":" R$ 130.454,77 ","classification":"Apartamento | 43,47m²","link":"https://www.zukerman.com.br/apartamento-se-sao-paulo-sp-20226-148257","latitude":"-23.5542118","longitude":"-46.6295628","zipcode":"\"01512-010\""},{"address":" Av. Ipiranga, 1267 ","price1":" R$ 499.000,00 ","price2":"","classification":"Sala Comercial","link":"javascript:link_externo(19648,148611);","latitude":"-23.5397936","longitude":"-46.6371467","zipcode":"\"01039-000\""},{"address":" Rua Charles Spencer Chaplin, 199 ","price1":" R$ 1.440.000,00 ","price2":"","classification":"Apartamento Duplex | 398,68m²","link":"https://www.zukerman.com.br/apartamento-duplex-vila-andrade-sao-paulo-sp-17880-139121","latitude":"-23.6237596","longitude":"-46.7360964","zipcode":"\"05642-011\""},{"address":" Rua Voluntários da Pátria, 4.130 ","price1":" R$ 430.000,00 ","price2":"","classification":"Apartamento | 67,26m²","link":"https://www.zukerman.com.br/apartamento-santana-sao-paulo-sp-19730-146496","latitude":"-23.4847177","longitude":"-46.6294548","zipcode":"\"02402-400\""},{"address":" Rua Doutor Nicolau de Sousa Queirós, 221 ","price1":" R$ 17.705,75 ","price2":" R$ 8.852,88 ","classification":"Vaga de Garagem | 25,70m²","link":"https://www.zukerman.com.br/vaga-de-garagem-vila-mariana-sao-paulo-sp-20198-148188","latitude":"-23.578404","longitude":"-46.6388285","zipcode":"\"04105-001\""},{"address":" Rua Amâncio Pedro de Oliveira, 150 ","price1":" R$ 284.884,13 ","price2":" R$ 142.442,06 ","classification":"Apartamento | 47,13m²","link":"https://www.zukerman.com.br/apartamento-vila-maracana-sao-paulo-sp-20175-148113","latitude":"-23.6501721","longitude":"-46.7472088","zipcode":"\"05846-050\""},{"address":" Avenida Norberto Mayer, 136 ","price1":" R$ 476.661,88 ","price2":" R$ 238.330,94 ","classification":"Apartamento | 68,19m²","link":"https://www.zukerman.com.br/apartamento-vila-carrao-sao-paulo-sp-20362-148690","latitude":"-23.5576059","longitude":"-46.5399319","zipcode":"\"03425-040\""},{"address":" Nanuque , 460/470 ","price1":" R$ 1.041.351,62 ","price2":" R$ 728.946,13 ","classification":"Apartamento | 155,10m²","link":"https://www.zukerman.com.br/apartamento-vila-hamburguesa-sao-paulo-sp-20183-148122","latitude":"-23.5309104","longitude":"-46.7258838","zipcode":"\"05302-031\""},{"address":" Avenida Doutor Eduardo Cotching, 652 ","price1":" R$ 1.415.140,06 ","price2":" R$ 707.570,03 ","classification":"Prédio Comercial | 132,00m2","link":"https://www.zukerman.com.br/predio-comercial-vila-formosa-sao-paulo-sp-20172-148110","latitude":"-23.5632796","longitude":"-46.55435860000001","zipcode":"\"03356-000\""},{"address":" Rua Fausto, 357 ","price1":" R$ 686.274,36 ","price2":" R$ 514.705,77 ","classification":"Apartamento | 91,83m²","link":"https://www.zukerman.com.br/apartamento-vila-moinho-velho-sao-paulo-sp-20241-148394","latitude":"-23.6113586","longitude":"-46.60392119999999","zipcode":"\"04285-080\""},{"address":" Praça Comandante Artur Tompson, 48 ","price1":" R$ 1.236.767,25 ","price2":" R$ 618.383,63 ","classification":"Casa | 290,00m2","link":"https://www.zukerman.com.br/casa-vila-formosa-sao-paulo-sp-20096-147739","latitude":"-23.5641279","longitude":"-46.5450138","zipcode":"\"03416-010\""},{"address":" Rua Carlos Weber, 956 ","price1":" R$ 602.215,43 ","price2":" R$ 421.550,80 ","classification":"Apartamento | 51,50m²","link":"https://www.zukerman.com.br/apartamento-vila-leopoldina-sao-paulo-sp-20371-148701","latitude":"-23.5289067","longitude":"-46.7298722","zipcode":"\"05303-000\""},{"address":" Rua Cruz do Espírito Santo, 854 ","price1":" R$ 182.605,59 ","price2":" R$ 91.302,79 ","classification":"Apartamento | 42,50m²","link":"https://www.zukerman.com.br/apartamento-vila-chabilandia-sao-paulo-sp-20332-148603","latitude":"-23.5337334","longitude":"-46.4055942","zipcode":"\"08440-470\""},{"address":" Rua Emílio Mallet, 1893 ","price1":" R$ 850.681,86 ","price2":" R$ 425.340,93 ","classification":"Apartamento | 87,51m²","link":"https://www.zukerman.com.br/apartamento-vila-gomes-cardim-sao-paulo-sp-20140-147957","latitude":"-23.5444656","longitude":"-46.5554974","zipcode":"\"03320-001\""},{"address":" Rua Giovanni Carnovali, 92 ","price1":" R$ 569.888,45 ","price2":" R$ 284.944,22 ","classification":"Casa | 120,00m2","link":"https://www.zukerman.com.br/casa-vila-caraguata-sao-paulo-sp-20147-147975","latitude":"-23.6436127","longitude":"-46.6042506","zipcode":"\"04191-000\""},{"address":" Rua João Abreu Castelo Branco, 668 ","price1":" R$ 828.210,13 ","price2":" R$ 464.907,58 ","classification":"Casa | 345,00m2","link":"https://www.zukerman.com.br/casa-vila-carmosina-sao-paulo-sp-20235-148388","latitude":"-23.558128","longitude":"-46.46250089999999","zipcode":"\"08270-150\""},{"address":" Rua Benjamin Capusso, 165 ","price1":" R$ 372.291,28 ","price2":" R$ 223.374,77 ","classification":"Apartamento | 77,42m²","link":"https://www.zukerman.com.br/apartamento-vila-curuca-sao-paulo-sp-20282-148536","latitude":"-23.5047317","longitude":"-46.4272974","zipcode":"\"08031-760\""},{"address":" Rua Rosabela da Silva, 115 ","price1":" R$ 441.353,98 ","price2":" R$ 220.676,99 ","classification":"Casa | 144,37m2","link":"https://www.zukerman.com.br/casa-vila-cunha-bueno-sao-paulo-sp-20077-147711","latitude":"-23.6039166","longitude":"-46.5157491","zipcode":"\"03260-030\""},{"address":" Avenida Doutor Altino Arantes, 865 ","price1":" R$ 495.701,58 ","price2":" R$ 297.420,95 ","classification":"Apartamento | 66,99m²","link":"https://www.zukerman.com.br/apartamento-vila-clementino-sao-paulo-sp-20291-148549","latitude":"-23.6028163","longitude":"-46.6452904","zipcode":"\"04042-034\""},{"address":" Rua Geraldo Correia, 460 ","price1":" R$ 642.500,00 ","price2":"","classification":"Casa | 399,10m2","link":"https://www.zukerman.com.br/casa-vila-carrao-sao-paulo-sp-20141-148443","latitude":"-23.5578477","longitude":"-46.539404","zipcode":"\"03425-020\""},{"address":" Rua Amâncio Pedro de Oliveira, 150 ","price1":" R$ 218.513,36 ","price2":" R$ 109.256,68 ","classification":"Apartamento | 47,13m²","link":"https://www.zukerman.com.br/apartamento-vila-maracana-sao-paulo-sp-20087-147730","latitude":"-23.6501721","longitude":"-46.7472088","zipcode":"\"05846-050\""},{"address":" Rua São Wenceslau, 301 ","price1":" R$ 425.356,57 ","price2":" R$ 212.678,29 ","classification":"Apartamento | 54,03m²","link":"https://www.zukerman.com.br/apartamento-vila-guarani-sao-paulo-sp-20307-148566","latitude":"-23.6383589","longitude":"-46.634668","zipcode":"\"04316-070\""},{"address":" Rua Aparecida da Costa Melo, 71 ","price1":" R$ 208.740,00<span class=\"sqla\"> | 1 lance</span> ","price2":"","classification":"Casa","link":"https://www.zukerman.com.br/casa-vila-costa-melo-sao-paulo-sp-20231-148274","latitude":"-23.5182435","longitude":"-46.5128126","zipcode":"\"03625-110\""},{"address":" Avenida Damasceno Vieira, 1.215 ","price1":" R$ 1.467.634,65 ","price2":" R$ 880.580,79 ","classification":"Apartamento | 216,39m²","link":"https://www.zukerman.com.br/apartamento-vila-mascote-sao-paulo-sp-20308-148567","latitude":"-23.6483728","longitude":"-46.66887879999999","zipcode":"\"04363-040\""},{"address":" Rua Loreto, 96 ","price1":" R$ 483.630,00<span class=\"sqla\"> | 1 lance</span> ","price2":"","classification":"Apartamento","link":"https://www.zukerman.com.br/apartamento-vila-santo-estefano-sao-paulo-sp-20231-148276","latitude":"-23.6242292","longitude":"-46.6205952","zipcode":"\"04152-130\""},{"address":" Rua Armindo Guaraná, 45 ","price1":" R$ 1.242.885,00 ","price2":"","classification":"Apartamento","link":"javascript:link_externo(19648,148622);","latitude":"-23.5539698","longitude":"-46.5682185","zipcode":"\"03335-070\""},{"address":" Rua Taquaruçu, 391 ","price1":" R$ 368.516,65 ","price2":" R$ 221.109,99 ","classification":"Apartamento | 56,83m²","link":"https://www.zukerman.com.br/apartamento-vila-parque-jabaquara-sao-paulo-sp-20236-148389","latitude":"-23.6404043","longitude":"-46.6470516","zipcode":"\"04346-040\""},{"address":" Rua Major Freire, 260 ","price1":" R$ 481.635,22 ","price2":" R$ 240.817,61 ","classification":"Apartamento | 81,59m²","link":"https://www.zukerman.com.br/apartamento-vila-monte-alegre-sao-paulo-sp-20275-148525","latitude":"-23.627876","longitude":"-46.638395","zipcode":"\"04304-110\""},{"address":" Rua Marechal Barbacena, 926 ","price1":" R$ 1.317.106,21 ","price2":" R$ 790.263,73 ","classification":"Apartamento Duplex | 207,02m²","link":"https://www.zukerman.com.br/apartamento-duplex-vila-regente-feijo-sao-paulo-sp-20196-148186","latitude":"-23.556595","longitude":"-46.57050599999999","zipcode":"\"03333-000\""},{"address":" Rua Colônia Leopoldina, 87 ","price1":" R$ 211.300,47 ","price2":" R$ 126.780,28 ","classification":"Apartamento | 49,88m²","link":"https://www.zukerman.com.br/apartamento-vila-silvia-sao-paulo-sp-20228-148259","latitude":"-23.4900042","longitude":"-46.5038753","zipcode":"\"03821-020\""},{"address":" Avenida José Galante, 671 ","price1":" R$ 1.078.048,79 ","price2":" R$ 539.024,40 ","classification":"Apartamento | 213,25m²","link":"https://www.zukerman.com.br/apartamento-vila-suzana-sao-paulo-sp-20331-148601","latitude":"-23.6216337","longitude":"-46.7372647","zipcode":"\"05642-001\""},{"address":" Rua Doutor Andrade Pertence, 91 ","price1":" R$ 1.200.000,00 ","price2":"","classification":"Residencial / Comercial | 140,00m2","link":"https://www.zukerman.com.br/residencial-comercial-vila-olimpia-sao-paulo-sp-17880-139123","latitude":"-23.6044422","longitude":"-46.675957","zipcode":"\"04549-020\""},{"address":" Rua Invasão dos Holandeses, 303 ","price1":" R$ 1.376.995,52 ","price2":" R$ 688.497,76 ","classification":"Sobrado | 325,00m2","link":"https://www.zukerman.com.br/sobrado-vila-sabrina-sao-paulo-sp-20354-148676","latitude":"-23.4876123","longitude":"-46.568982","zipcode":"\"02141-070\""},{"address":" Rua Ibó , 300 ","price1":" R$ 791.058,67 ","price2":" R$ 474.635,20 ","classification":"Apartamento | 104,54m²","link":"https://www.zukerman.com.br/apartamento-vila-regente-feijo-sao-paulo-sp-19996-147464","latitude":"-23.5603028","longitude":"-46.5727616","zipcode":"\"03346-000\""},{"address":" Rua Engenheiro Lauro Penteado, 180 ","price1":" R$ 798.891,76 ","price2":" R$ 959.686,55 ","classification":"Apartamento | 90,93m²","link":"https://www.zukerman.com.br/apartamento-vila-monumento-sao-paulo-sp-20284-148538","latitude":"-23.5733785","longitude":"-46.61362399999999","zipcode":"\"01551-030\""},{"address":" Rua José da Rocha Mendes Filho, 133 ","price1":" R$ 408.200,00 ","price2":"","classification":"Casa | 128,75m2","link":"https://www.zukerman.com.br/casa-vila-santo-estefano-sao-paulo-sp-20141-148446","latitude":"-23.6276024","longitude":"-46.6266208","zipcode":"\"04153-090\""},{"address":" Rua Camillo Nader, 200 ","price1":" R$ 640.185,00 ","price2":"","classification":"Apartamento","link":"https://www.zukerman.com.br/apartamento-vila-morumbi-sao-paulo-sp-20231-148294","latitude":"-23.6130516","longitude":"-46.7060446","zipcode":"\"05688-030\""},{"address":" Avenida Zelina, 729 ","price1":" R$ 1.377.520,00 ","price2":"","classification":"Ex-Agência | 290,00m2","link":"javascript:link_externo(20204,148206);","latitude":"-23.5896843","longitude":"-46.5768828","zipcode":"\"03143-001\""},{"address":" Rua Pedro Inácio de Araújo, 201 ","price1":" R$ 388.080,00 ","price2":"","classification":"Apartamento","link":"https://www.zukerman.com.br/apartamento-vila-sao-silvestre-sao-paulo-sp-20231-148268","latitude":"-23.5650547","longitude":"-46.7564104","zipcode":"\"05386-330\""},{"address":" Rua Pero Peres, 144 e 146 ","price1":" R$ 162.800,00 ","price2":"","classification":"Casa | 245,50m2","link":"https://www.zukerman.com.br/casa-vila-sao-francisco-sao-paulo-sp-20141-148464","latitude":"-23.5464968","longitude":"-46.40569410000001","zipcode":"\"08460-020\""}]